1 25982U 99065C   16235.17532007  .00000014  00000-0  57267-4 0  9993,2 25982  45.0196 116.0780 0004617 218.7517 282.2324 14.31857334872813
1 25982U 99065C   16235.93011199 +.00000005 +00000-0 +53666-4 0  9990,2 25982 045.0196 112.5359 0004668 221.6765 213.7734 14.31857451872892
1 25982U 99065C   16236.83299437 -.00000008  00000-0  48957-4 0  9994,2 25982  45.0196 108.2990 0004717 225.4128 188.5995 14.31857636873057
1 25982U 99065C   16236.90644580 -.00000010 +00000-0 +48223-4 0  9994,2 25982 045.0196 107.9544 0004723 225.7097 207.2867 14.31857643873036
1 25982U 99065C   16238.11119067 -.00000038  00000-0  37947-4 0  9997,2 25982  45.0195 102.3009 0004779 230.5562 298.5107 14.31857902873232
1 25982U 99065C   16238.93196150 -.00000054 +00000-0 +31882-4 0  9995,2 25982 045.0195 098.4492 0004820 233.7749 210.1887 14.31858086873321
1 25982U 99065C   16239.83559030 -.00000066  00000-0  27499-4 0  9997,2 25982  45.0195  94.2086 0004865 237.2400 189.1395 14.31858291873480
1 25982U 99065C   16239.90831894 -.00000066 +00000-0 +27521-4 0  9992,2 25982 045.0195 093.8674 0004866 237.5381 204.0962 14.31858305873461
1 25982U 99065C   16241.10818891 -.00000056  00000-0  31114-4 0  9991,2 25982  45.0195  88.2366 0004916 242.3686 270.1854 14.31858610873660
1 25982U 99065C   16242.54891203 -.00000009  00000-0  48466-4 0  9994,2 25982  45.0196  81.4755 0004978 248.0161 138.1785 14.31859040873874
1 25982U 99065C   16242.91984200 +.00000008 +00000-0 +54912-4 0  9996,2 25982 045.0197 079.7348 0004987 249.3570 250.7107 14.31859215873896
1 25982U 99065C   16243.59866334  .00000010  00000-0  55730-4 0  9990,2 25982  45.0197  76.5492 0005013 251.9073 150.6483 14.31859303874028
1 25982U 99065C   16243.96892392 +.00000024 +00000-0 +60927-4 0  9993,2 25982 045.0197 074.8117 0005019 253.3259 259.6491 14.31859453874048
1 25982U 99065C   16244.86479315  .00000034  00000-0  64575-4 0  9993,2 25982  45.0198  70.6077 0005044 256.7458 198.6121 14.31859693874200
1 25982U 99065C   16244.94601251 +.00000034 +00000-0 +64546-4 0  9996,2 25982 045.0198 070.2266 0005044 257.0925 257.3299 14.31859712874187
1 25982U 99065C   16245.98892047  .00000021  00000-0  59883-4 0  9990,2 25982  45.0198  65.3326 0005060 261.1691 234.3077 14.31859956874362
1 25982U 99065C   16247.50425477 -.00000004  00000-0  50407-4 0  9994,2 25982  45.0199  58.2216 0005090 266.8112 127.2837 14.31860411874581
1 25982U 99065C   16248.55383883 -.00000033  00000-0  39574-4 0  9998,2 25982  45.0200  53.2962 0005097 270.8661 138.7321 14.31860621874733
1 25982U 99065C   16248.92386605 -.00000041 +00000-0 +36696-4 0  9995,2 25982 045.0201 051.5598 0005089 272.4662 246.3487 14.31860678874753
1 25982U 99065C   16249.90094273 -.00000051  00000-0  33241-4 0  9995,2 25982  45.0202  46.9747 0005094 276.1861 244.0188 14.31860881874924
1 25982U 99065C   16251.48557133 -.00000042  00000-0  36538-4 0  9992,2 25982  45.0205  39.5384 0005097 282.3008 134.0603 14.31861160875154
1 25982U 99065C   16252.52861874 -.00000024  00000-0  43185-4 0  9994,2 25982  45.0206  34.6437 0005091 286.2720 111.8676 14.31861374875305
1 25982U 99065C   16252.83042350 -.00000014 +00000-0 +46691-4 0  9992,2 25982 045.0206 033.2275 0005077 287.6097 227.7425 14.31861460875312
1 25982U 99065C   16253.80705218 -.00000001  00000-0  51777-4 0  9996,2 25982  45.0207  28.6446 0005057 291.4907 222.9431 14.31861702875483
1 25982U 99065C   16254.84997029 -.00000005  00000-0  50206-4 0  9994,2 25982  45.0207  23.7507 0005038 295.6325 199.9161 14.31861976875639
1 25982U 99065C   16256.50703453 -.00000015  00000-0  46581-4 0  9997,2 25982  45.0209  15.9748 0005001 302.1735 103.2848 14.31862543875877
1 25982U 99065C   16256.73569163 -.00000016 +00000-0 +46011-4 0  9999,2 25982 045.0209 014.9018 0004990 303.0595 202.1948 14.31862611875872
1 25982U 99065C   16257.78596270 -.00000037  00000-0  38188-4 0  9993,2 25982  45.0208   9.9734 0004964 307.1628 217.1479 14.31862866876051
1 25982U 99065C   16259.16294766 -.00000024  00000-0  43171-4 0  9996,2 25982  45.0209   3.5117 0004920 312.5371 116.5691 14.31863330876251
1 25982U 99065C   16260.48659959  .00000010  00000-0  55618-4 0  9995,2 25982  45.0208 357.3003 0004858 317.9149 100.8074 14.31863817876448
1 25982U 99065C   16260.71476671 +.00000022 +00000-0 +60177-4 0  9998,2 25982 045.0208 356.2297 0004853 318.9723 197.0187 14.31863930876444
1 25982U 99065C   16261.75841723  .00000048  00000-0  69638-4 0  9996,2 25982  45.0208 351.3322 0004809 323.3278 177.5643 14.31864306876623
1 25982U 99065C   16263.20005654  .00000051  00000-0  70747-4 0  9990,2 25982  45.0208 344.5672 0004738 329.4942  49.7953 14.31864705876831
1 25982U 99065C   16264.46604868  .00000042  00000-0  67500-4 0  9994,2 25982  45.0207 338.6264 0004655 335.0771  96.3292 14.31865133877013
1 25982U 99065C   16265.51517456  .00000024  00000-0  60710-4 0  9993,2 25982  45.0206 333.7034 0004602 339.6656 104.8985 14.31865487877169
1 25982U 99065C   16265.59655525 +.00000023 +00000-0 +60410-4 0  9997,2 25982 045.0206 333.3215 0004599 340.0446 164.4181 14.31865517877146
1 25982U 99065C   16266.64696914  .00000022  00000-0  60042-4 0  9991,2 25982  45.0205 328.3924 0004532 344.6959 179.5719 14.31865967877325
1 25982U 99065C   16268.44495748  .00000035  00000-0  64958-4 0  9997,2 25982  45.0203 319.9551 0004425 352.7971  88.5273 14.31866686877581
1 25982U 99065C   16268.66828508 +.00000046 +00000-0 +68903-4 0  9991,2 25982 045.0202 318.9070 0004412 353.8477 159.7775 14.31866813877584
1 25982U 99065C   16269.64318744  .00000064  00000-0  75553-4 0  9995,2 25982  45.0201 314.3321 0004345 358.4282 145.3899 14.31867190877758
1 25982U 99065C   16272.13539154  .00000119  00000-0  96135-4 0  9993,2 25982  45.0197 302.6366 0004186  10.4940  32.3295 14.31868310878111
1 25982U 99065C   16273.48121192  .00000135  00000-0  10196-3 0  9991,2 25982  45.0196 296.3210 0004110  17.4079 129.4404 14.31869132878308
1 25982U 99065C   16274.52566939  .00000109  00000-0  92283-4 0  9998,2 25982  45.0195 291.4196 0004054  22.8100 113.1243 14.31869634878452
1 25982U 99065C   16276.18269992  .00000056  00000-0  72814-4 0  9990,2 25982  45.0194 283.6434 0003962  31.5398  14.1758 14.31870297878696
1 25982U 99065C   16277.52933205  .00000050  00000-0  70387-4 0  9991,2 25982  45.0193 277.3239 0003903  38.8399 115.0969 14.31870865878881
1 25982U 99065C   16278.83804068  .00000072  00000-0  78796-4 0  9996,2 25982  45.0193 271.1823 0003850  45.9622  20.5243 14.31871442879070
1 25982U 99065C   16278.96923838 +.00000076 +00000-0 +80240-4 0  9998,2 25982 045.0192 270.5666 0003845 046.7081 336.7199 14.31871494879067
